     3.04           N: NAVIGATION DATA  J: QZSS             RINEX VERSION / TYPE
SimGEN V7.04.00     Spirent             20230108 120000 UTC PGM / RUN BY / DATE
QZSA   4.6566D-09  1.4901D-08 -5.9605D-08 -5.9605D-08 M 01  IONOSPHERIC CORR
QZSB   7.9872D+04  6.5536D+04 -6.5536D+04 -3.9322D+05 M 01  IONOSPHERIC CORR
QZUT  5.5879354477D-09 0.000000000D+00 294912 2244          TIME SYSTEM CORR
    18                                                      LEAP SECONDS
                                                            END OF HEADER
J02 2023 01 08 12 00 00-5.147103365743D-07-1.136868377216D-13 0.000000000000D+00
     8.570000000000D+02-2.813750000000D+02 1.406129999530D-09-1.781581877224D+00
    -8.951872587204D-06 7.510803255718D-02 1.034326851368D-05 6.493260515213D+03
     4.320000000000D+04 1.206994056702D-06 2.689429669524D+00-2.117827534676D-06
     7.232711336602D-01-1.172500000000D+02-1.578430481405D+00-1.332555506286D-09
    -6.757424330990D-10 0.000000000000D+00 2.244000000000D+03 0.000000000000D+00
     2.900000000000D+00 0.000000000000D+00 0.000000000000D+00 8.570000000000D+02
     4.320000000000D+04 4.000000000000D+00 0.000000000000D+00 0.000000000000D+00
J03 2023 01 08 12 00 00-7.869675755501D-08 0.000000000000D+00 0.000000000000D+00
     8.570000000000D+02 4.391875000000D+02 1.447917454431D-09 2.714520003919D+00
     1.654401421547D-05 7.526671467349D-02-8.506700396538D-06 6.492790670395D+03
     4.320000000000D+04-2.335757017136D-06-1.880630227061D+00 3.058463335037D-06
     7.103870497749D-01 4.215000000000D+02-1.592629635966D+00-1.165405686682D-09
    -9.450393646828D-10 0.000000000000D+00 2.244000000000D+03 0.000000000000D+00
     2.900000000000D+00 0.000000000000D+00 0.000000000000D+00 8.570000000000D+02
     4.320000000000D+04 4.000000000000D+00 0.000000000000D+00 0.000000000000D+00
J04 2023 01 08 12 00 00 1.179251430585D-04 1.477928890381D-12 0.000000000000D+00
     8.570000000000D+02-1.024000000000D+03-2.035799084918D-10 8.952958280643D-01
    -3.183446824551D-05 7.529551070184D-02 1.811422407627D-05 6.493851921082D+03
     4.320000000000D+04-4.973262548447D-06-1.499161933198D-01-5.587935447693D-07
     6.093406045221D-01-5.206875000000D+02-1.546141724517D+00 1.828647599084D-10
     1.760073314118D-09 0.000000000000D+00 2.244000000000D+03 0.000000000000D+00
     2.900000000000D+00 0.000000000000D+00 0.000000000000D+00 8.570000000000D+02
     4.320000000000D+04 4.000000000000D+00 0.000000000000D+00 0.000000000000D+00
J07 2023 01 08 12 00 00-3.026798367500D-08 0.000000000000D+00 0.000000000000D+00
     8.570000000000D+02 4.927500000000D+02 0.000000000000D+00 1.919499586303D+00
     1.602247357368D-05 2.391530433670D-04 1.669675111771D-05 6.493392271042D+03
     4.320000000000D+04-1.633539795876D-06 6.557218352807D-01-1.028180122375D-06
     7.080933120715D-04-5.076250000000D+02 2.792357698964D+00 1.178977680581D-09
     0.000000000000D+00 0.000000000000D+00 2.244000000000D+03 0.000000000000D+00
     2.900000000000D+00 0.000000000000D+00 0.000000000000D+00 8.570000000000D+02
     4.320000000000D+04 4.000000000000D+00 0.000000000000D+00 0.000000000000D+00
